FLOCK 4V-8              
1 46288U 20061S   22309.41448326  .00023793  00000+0  12097-2 0  9999
2 46288  97.4343  16.7079 0003606 124.6894 235.4679 15.16843702119755
FLOCK 4V-6              
1 46289U 20061T   22309.80203567  .00017054  00000+0  86524-3 0  9999
2 46289  97.4363  17.1503 0002243 133.4044 226.7376 15.16992685119905
FLOCK 4V-5              
1 46290U 20061U   22310.19705008  .00006681  00000+0  36872-3 0  9997
2 46290  97.4354  17.0509 0003726 126.9704 233.1869 15.14261293119933
FLOCK 4V-7              
1 46291U 20061V   22309.77367196  .00008602  00000+0  44182-3 0  9990
2 46291  97.4349  17.1719 0003343 117.8564 242.3008 15.16730927119798
3CAT-5A                 
1 46292U 20061W   22310.13872275  .00004972  00000+0  28854-3 0  9996
2 46292  97.4316  16.0856 0004857  99.7147 260.4632 15.12574589119856
3CAT-5B                 
1 46293U 20061X   22310.13366618  .00004727  00000+0  27283-3 0  9999
2 46293  97.4315  16.2156 0004854  96.6396 263.5388 15.12801780119836
OSM-1 CICERO            
1 46294U 20061Y   22309.66377060  .00008422  00000+0  46449-3 0  9990
2 46294  97.4330  16.4469 0004588  97.1279 263.0475 15.14207553119835
TYVAK-0171              
1 46295U 20061Z   22309.62924222  .00018431  00000+0  89874-3 0  9995
2 46295  97.4388  18.0184 0004318  98.1442 262.0282 15.18358564119855
FLOCK 4V-10             
1 46296U 20061AA  22309.19518815  .00009063  00000+0  46455-3 0  9994
2 46296  97.4357  16.7685 0002051  85.2826 274.8642 15.16789274119785
FLOCK 4V-13             
1 46297U 20061AB  22310.17747774  .00006678  00000+0  34394-3 0  9991
2 46297  97.4356  17.7488 0002194  86.5279 273.6205 15.16719310119912
LEMUR-2-ETHANOAKES      
1 46298U 20061AC  22309.43001148  .00024858  00000+0  11248-2 0  9999
2 46298  97.4372  18.7901 0001890  93.6381 266.5071 15.20891452119901
LEMUR-2-OSCARLATOR      
1 46299U 20061AD  22310.18790432  .00024566  00000+0  10919-2 0  9995
2 46299  97.4383  19.6533 0002048  96.2349 263.9120 15.21506736120057
SPACEBEE-21             
1 46300U 20061AE  22310.19876203  .00035345  00000+0  14115-2 0  9999
2 46300  97.4380  20.7426 0001405  86.4506 273.6892 15.25056802120088
SPACEBEE-20             
1 46301U 20061AF  22309.67546256  .00039249  00000+0  15710-2 0  9992
2 46301  97.4412  20.3438 0001272  86.4533 273.6850 15.24956164120001
SPACEBEE-15             
1 46302U 20061AG  22309.18790803  .00046225  00000+0  17453-2 0  9996
2 46302  97.4383  20.2712 0001205  88.1217 272.0160 15.26863090119964
SPACEBEE-19             
1 46303U 20061AH  22310.17038083  .00036435  00000+0  14246-2 0  9992
2 46303  97.4379  20.9642 0001527  88.4663 271.6750 15.25757004120096
SPACEBEE-18             
1 46304U 20061AJ  22310.18510007  .00036377  00000+0  14234-2 0  9997
2 46304  97.4383  20.9275 0001288  83.2792 276.8593 15.25732698120098
SPACEBEE-10             
1 46305U 20061AK  22310.16726600  .00051448  00000+0  17256-2 0  9997
2 46305  97.4393  22.2339 0000561  94.7520 265.3784 15.30717714120177
SPACEBEE-17             
1 46306U 20061AL  22309.15293018  .00047235  00000+0  17987-2 0  9997
2 46306  97.4386  20.1894 0001132  86.2518 273.8850 15.26574648119999
SPACEBEE-11             
1 46307U 20061AM  22310.19499557  .00042741  00000+0  15057-2 0  9993
2 46307  97.4387  21.8718 0000875  92.8792 267.2548 15.29166717120152
SPACEBEE-16             
1 46308U 20061AN  22309.65665777  .00047593  00000+0  18003-2 0  9996
2 46308  97.4391  20.7581 0001127  83.8786 276.2581 15.26793983120030
SPACEBEE-12             
1 46309U 20061AP  22310.20629174  .00039722  00000+0  14326-2 0  9990
2 46309  97.4386  21.6925 0000935  92.8749 267.2597 15.28413953120149
SPACEBEE-13             
1 46310U 20061AQ  22310.20571624  .00039012  00000+0  14319-2 0  9992
2 46310  97.4381  21.5380 0001016  89.7910 270.3446 15.27840573120178
SPACEBEE-14             
1 46311U 20061AR  22310.16994277  .00039623  00000+0  14677-2 0  9996
2 46311  97.4381  21.4407 0000945  90.4110 269.7237 15.27534830120153
TTU100                  
1 46312U 20061AS  22310.17508602  .00015100  00000+0  77572-3 0  9999
2 46312  97.4361  18.2096 0003934  68.4327 344.1162 15.16575631119960
FLOCK 4V-1              
1 46313U 20061AT  22309.50398569  .00010488  00000+0  53733-3 0  9991
2 46313  97.4365  17.4431 0003930  65.3821 294.7822 15.16760856119845
FLOCK 4V-4              
1 46314U 20061AU  22310.19270292  .00008141  00000+0  41775-3 0  9997
2 46314  97.4362  18.0496 0004428  63.6758 296.4930 15.16777683119995
LEMUR-2-SCHMIDTFALL     
1 46315U 20061AV  22309.43493557  .00028575  00000+0  12487-2 0  9994
2 46315  97.4391  19.4803 0002575  61.8396 298.3100 15.22054093120019
LEMUR-2-DJUPROERA       
1 46316U 20061AW  22310.18689231  .00026276  00000+0  11209-2 0  9992
2 46316  97.4384  20.3993 0002512  55.7047 304.4427 15.22893396120141
LEMUR-2-SQUAREJAWS      
1 46317U 20061AX  22309.63599538  .00028481  00000+0  12290-2 0  9992
2 46317  97.4386  19.7788 0002496  56.4702 303.6773 15.22484598120061
LEMUR-2-URSA-AVION      
1 46318U 20061AY  22309.44180018  .00029309  00000+0  12696-2 0  9991
2 46318  97.4383  19.5717 0002584  53.7439 306.4036 15.22347314120038
KEPLER-2 (TARS)         
1 46319U 20061AZ  22310.16754015  .00007778  00000+0  41542-3 0  9996
2 46319  97.4344  17.8554 0003400  53.3782 306.7762 15.15379746119999
NAPA-1                  
1 46320U 20061BA  22310.21137281  .00006248  00000+0  35010-3 0  9998
2 46320  97.4346  17.3425 0003370  49.8609  24.5682 15.13745098119967
FLOCK 4V-2              
1 46321U 20061BB  22310.19801487  .00018737  00000+0  90273-3 0  9990
2 46321  97.4356  18.8065 0003924  62.1806 297.9825 15.18775819119927
STARLINK-1734           
1 46325U 20062A   22309.66595980 -.00003158  00000+0 -19333-3 0  9994
2 46325  53.0553  48.5262 0001145  75.8034 284.3082 15.06383487121666
STARLINK-1654           
1 46326U 20062B   22310.12811244 -.00002116  00000+0 -12323-3 0  9997
2 46326  53.0530  91.6926 0001333 105.2492 254.8645 15.06389383120671
STARLINK-1673           
1 46327U 20062C   22309.68576225 -.00002682  00000+0 -16129-3 0  9990
2 46327  53.0527  93.4211 0001556 113.2957 246.8195 15.06388386120423
STARLINK-1686           
1 46328U 20062D   22310.06357934 -.00002380  00000+0 -14096-3 0  9995
2 46328  53.0552  71.7430 0001181  97.1595 262.9529 15.06389085120939
STARLINK-1695           
1 46329U 20062E   22309.76505449 -.00034056  00000+0 -22675-2 0  9993
2 46329  53.0543  73.0873 0000182 265.8645  94.2323 15.06577863120892
STARLINK-1710           
1 46330U 20062F   22309.75395590 -.00003949  00000+0 -24646-3 0  9996
2 46330  53.0562  73.1167 0001157 100.5824 259.5295 15.06389586120728
STARLINK-1719           
1 46331U 20062G   22309.78897337 -.00001858  00000+0 -10591-3 0  9997
2 46331  53.0550  92.9538 0001674 119.1367 240.9790 15.06389358120629
STARLINK-1721           
1 46332U 20062H   22309.80003018 -.00001990  00000+0 -11478-3 0  9998
2 46332  53.0555  92.9260 0001430 101.0406 259.0743 15.06389074120625
STARLINK-1723           
1 46333U 20062J   22309.68207446 -.00002402  00000+0 -14247-3 0  9992
2 46333  53.0543  93.4437 0001164  84.9690 275.1432 15.06388100120424
STARLINK-1725           
1 46334U 20062K   22310.14838226 -.00001385  00000+0 -74132-4 0  9991
2 46334  53.0556  71.6319 0001532 102.1964 257.9196 15.06389590120959
STARLINK-1727           
1 46335U 20062L   22309.77791963 -.00002230  00000+0 -13090-3 0  9990
2 46335  53.0550  93.0270 0001258  85.1242 274.9890 15.06386451120629
STARLINK-1738           
1 46336U 20062M   22310.03409332 -.00002572  00000+0 -15389-3 0  9990
2 46336  53.0554  71.8543 0001874  97.8644 262.2557 15.06387524120948
STARLINK-1750           
1 46337U 20062N   22309.65075538 -.00003091  00000+0 -18880-3 0  9990
2 46337  53.0568  73.5970 0001432  88.7543 271.3610 15.06380101120703
STARLINK-1752           
1 46338U 20062P   22309.70051060 -.00002405  00000+0 -14265-3 0  9992
2 46338  53.0562  93.3765 0001828 110.3962 249.7224 15.06386542120420
STARLINK-1759           
1 46340U 20062R   22309.67470819 -.00001763  00000+0 -99561-4 0  9997
2 46340  53.0588  93.4981 0000909 106.0804 254.0285 15.06386685120411
STARLINK-1760           
1 46341U 20062S   22310.14466944 -.00001758  00000+0 -99213-4 0  9994
2 46341  53.0545  71.3774 0001553  99.9194 260.1971 15.06383657120964
STARLINK-1762           
1 46342U 20062T   22310.12439278 -.00001514  00000+0 -82818-4 0  9996
2 46342  53.0567  91.4683 0001210 104.3016 255.8107 15.06388432120671
STARLINK-1764           
1 46343U 20062U   22309.72077504  .00001344  00000+0  10909-3 0  9991
2 46343  53.0534  73.2729 0001428 110.0259 250.0884 15.06394365120894
STARLINK-1765           
1 46344U 20062V   22310.07094173 -.00002248  00000+0 -13212-3 0  9999
2 46344  53.0566  71.7139 0001262 121.9835 238.1277 15.06390555120929
STARLINK-1767           
1 46345U 20062W   22309.67375366 -.00002357  00000+0 -13940-3 0  9999
2 46345  53.0544  93.4720 0001380 105.6096 254.5046 15.06394262120422
STARLINK-1546           
1 46346U 20062X   22310.15677178  .00018117  00000+0  54927-3 0  9990
2 46346  53.0550 267.0193 0002790  20.2730 339.8381 15.34209719123285
STARLINK-1547           
1 46347U 20062Y   22309.56643844 -.00003676  00000+0 -22811-3 0  9990
2 46347  53.0567  48.9696 0001304  75.6765 284.4369 15.06379869121024
STARLINK-1553           
1 46348U 20062Z   22309.74290184 -.00002211  00000+0 -12966-3 0  9990
2 46348  53.0561  73.1700 0001346 104.7743 255.3395 15.06382880120719
STARLINK-1575           
1 46349U 20062AA  22310.07141462 -.00000153  00000+0  86578-5 0  9997
2 46349  53.0547  46.6972 0001661  73.5288 286.5884 15.06389750121293
STARLINK-1617           
1 46350U 20062AB  22309.70419825 -.00002575  00000+0 -15414-3 0  9998
2 46350  53.0537  93.3504 0001016  99.4722 260.6382 15.06385990120431
